NORAD_CAT_ID,OBJECT_NAME,OBJECT_TYPE,EPOCH,MEAN_MOTION,ECCENTRICITY,INCLINATION,RA_OF_ASC_NODE,ARG_OF_PERICENTER,MEAN_ANOMALY,BSTAR,MEAN_MOTION_DOT,MEAN_MOTION_DDOT,TLE_LINE0,TLE_LINE1,TLE_LINE2,SEMIMAJOR_AXIS,PERIOD,APOGEE,PERIGEE,DECAYED
52134.0,STARLINK-3721,PAYLOAD,2023-03-23 04:13:42,15.08844856,0.0001292,53.2168,248.7148,84.2613,275.8526,6.8054e-05,7.95e-06,0.0,0 STARLINK-3721,1 52134U 22029AY  23082.17619192  .00000795  00000-0  68054-4 0  9999,2 52134  53.2168 248.7148 0001292  84.2613 275.8526 15.08844856 57516,6917.866,95.437,540.624,538.837,0.0
52134.0,STARLINK-3721,PAYLOAD,2023-03-23 18:32:11,15.08844881,0.0001226,53.2158,246.0381,85.5988,274.5144,0.0001227,1.666e-05,0.0,0 STARLINK-3721,1 52134U 22029AY  23082.77235195  .00001666  00000-0  12270-3 0  9998,2 52134  53.2158 246.0381 0001226  85.5988 274.5144 15.08844881 57601,6917.865,95.437,540.579,538.882,0.0
52134.0,STARLINK-3721,PAYLOAD,2023-03-24 10:26:01,15.08864289,0.000125,53.2163,243.0634,83.1573,276.9561,0.00029478,4.41e-05,0.0,0 STARLINK-3721,1 52134U 22029AY  23083.43473444  .00004410  00000-0  29478-3 0  9991,2 52134  53.2163 243.0634 0001250  83.1573 276.9561 15.08864289 57700,6917.806,95.436,540.536,538.806,0.0
52134.0,STARLINK-3721,PAYLOAD,2023-03-24 16:47:33,15.08882071,0.0001392,53.2158,241.8729,82.6109,277.5041,0.0005793,8.954e-05,0.0,0 STARLINK-3721,1 52134U 22029AY  23083.69968752  .00008954  00000-0  57930-3 0  9991,2 52134  53.2158 241.8729 0001392  82.6109 277.5041 15.08882071 57744,6917.752,95.435,540.58,538.654,0.0
52134.0,STARLINK-3721,PAYLOAD,2023-03-25 03:55:15,15.08857578,0.0001493,53.2162,239.793,81.0365,279.0796,0.00015829,2.233e-05,0.0,0 STARLINK-3721,1 52134U 22029AY  23084.16337394  .00002233  00000-0  15829-3 0  9991,2 52134  53.2162 239.7930 0001493  81.0365 279.0796 15.08857578 57814,6917.827,95.436,540.724,538.659,0.0
52134.0,STARLINK-3721,PAYLOAD,2023-03-25 10:16:49,15.08817261,0.0001458,53.2146,238.6047,93.6012,266.5147,-0.00031441,-5.285e-05,0.0,0 STARLINK-3721,1 52134U 22029AY  23084.42835557 -.00005285  00000-0 -31441-3 0  9994,2 52134  53.2146 238.6047 0001458  93.6012 266.5147 15.08817261 57852,6917.95,95.439,540.824,538.806,0.0
52134.0,STARLINK-3721,PAYLOAD,2023-03-25 16:38:22,15.08807902,9.46e-05,53.2158,237.4136,108.5263,251.5832,-0.00040315,-6.692e-05,0.0,0 STARLINK-3721,1 52134U 22029AY  23084.69332098 -.00006692  00000-0 -40315-3 0  9998,2 52134  53.2158 237.4136 0000946 108.5263 251.5832 15.08807902 57896,6917.979,95.44,540.498,539.189,0.0
52134.0,STARLINK-3721,PAYLOAD,2023-03-26 10:07:37,15.08824619,9.56e-05,53.2164,234.144,87.5581,272.5521,-0.00042564,-7.052e-05,0.0,0 STARLINK-3721,1 52134U 22029AY  23085.42196172 -.00007052  00000-0 -42564-3 0  9990,2 52134  53.2164 234.1440 0000956  87.5581 272.5521 15.08824619 58001,6917.927,95.439,540.454,539.131,0.0
52134.0,STARLINK-3721,PAYLOAD,2023-03-26 16:29:09,15.08836592,0.0001292,53.2157,232.9527,106.5555,253.5579,-0.00017023,-2.996e-05,0.0,0 STARLINK-3721,1 52134U 22029AY  23085.68691870 -.00002996  00000-0 -17023-3 0  9997,2 52134  53.2157 232.9527 0001292 106.5555 253.5579 15.08836592 58041,6917.891,95.438,540.65,538.862,0.0
52134.0,STARLINK-3721,PAYLOAD,2023-03-27 13:09:11,15.08831577,0.0001137,53.216,229.0867,115.3217,244.7893,0.00063721,9.865e-05,0.0,0 STARLINK-3721,1 52134U 22029AY  23086.54805147  .00009865  00000-0  63721-3 0  9993,2 52134  53.2160 229.0867 0001137 115.3217 244.7893 15.08831577 58173,6917.906,95.438,540.558,538.985,0.0
52134.0,STARLINK-3721,PAYLOAD,2023-03-27 16:19:57,15.08849846,0.0001048,53.2154,228.4924,100.549,259.562,0.00078531,0.00012236,0.0,0 STARLINK-3721,1 52134U 22029AY  23086.68052914  .00012236  00000-0  78531-3 0  9995,2 52134  53.2154 228.4924 0001048 100.5490 259.5620 15.08849846 58195,6917.85,95.437,540.44,538.99,0.0
52134.0,STARLINK-3721,PAYLOAD,2023-03-28 12:59:58,15.08844389,0.0001283,53.2167,224.6281,107.2752,252.8381,0.00010361,1.362e-05,0.0,0 STARLINK-3721,1 52134U 22029AY  23087.54164560  .00001362  00000-0  10361-3 0  9997,2 52134  53.2167 224.6281 0001283 107.2752 252.8381 15.08844389 58321,6917.867,95.437,540.62,538.844,0.0
52134.0,STARLINK-3721,PAYLOAD,2023-03-28 16:10:44,15.08847315,0.0001108,53.2157,224.0336,98.2654,261.8464,0.00023543,3.462e-05,0.0,0 STARLINK-3721,1 52134U 22029AY  23087.67412514  .00003462  00000-0  23543-3 0  9995,2 52134  53.2157 224.0336 0001108  98.2654 261.8464 15.08847315 58347,6917.858,95.437,540.49,538.957,0.0
52134.0,STARLINK-3721,PAYLOAD,2023-03-29 12:50:44,15.08847649,0.0001057,53.2166,220.1666,101.7579,258.3532,7.9127e-05,9.72e-06,0.0,0 STARLINK-3721,1 52134U 22029AY  23088.53524178  .00000972  00000-0  79127-4 0  9994,2 52134  53.2166 220.1666 0001057 101.7579 258.3532 15.08847649 58470,6917.857,95.437,540.453,538.991,0.0
52134.0,STARLINK-3721,PAYLOAD,2023-03-29 16:01:30,15.08857079,7.27e-05,53.215,219.5705,91.5011,268.6064,0.00017049,2.428e-05,0.0,0 STARLINK-3721,1 52134U 22029AY  23088.66771534  .00002428  00000-0  17049-3 0  9990,2 52134  53.2150 219.5705 0000727  91.5011 268.6064 15.08857079 58493,6917.828,95.436,540.196,539.19,0.0
52134.0,STARLINK-3721,PAYLOAD,2023-03-30 09:30:45,15.08840553,9.4e-05,53.216,216.3008,88.4641,271.6459,7.4713e-05,9.02e-06,0.0,0 STARLINK-3721,1 52134U 22029AY  23089.39636486  .00000902  00000-0  74713-4 0  9994,2 52134  53.2160 216.3008 0000940  88.4641 271.6459 15.08840553 58600,6917.879,95.438,540.394,539.093,0.0
52134.0,STARLINK-3721,PAYLOAD,2023-03-30 15:52:18,15.08848695,0.0001003,53.2146,215.1104,86.9582,273.1525,0.00018415,2.645e-05,0.0,0 STARLINK-3721,1 52134U 22029AY  23089.66132031  .00002645  00000-0  18415-3 0  9993,2 52134  53.2146 215.1104 0001003  86.9582 273.1525 15.08848695 58646,6917.854,95.437,540.413,539.025,0.0
52134.0,STARLINK-3721,PAYLOAD,2023-03-31 17:18:27,15.08867803,0.0001135,53.2141,210.3509,110.5623,249.5491,0.00050895,7.827e-05,0.0,0 STARLINK-3721,1 52134U 22029AY  23090.72114809  .00007827  00000-0  50895-3 0  9990,2 52134  53.2141 210.3509 0001135 110.5623 249.5491 15.08867803 58802,6917.795,95.436,540.446,538.875,0.0
52134.0,STARLINK-3721,PAYLOAD,2023-04-01 01:15:24,15.08829413,0.0001675,53.2154,208.8672,68.4159,291.7012,-0.00010795,-2.005e-05,0.0,0 STARLINK-3721,1 52134U 22029AY  23091.05236808 -.00002005  00000-0 -10795-3 0  9991,2 52134  53.2154 208.8672 0001675  68.4159 291.7012 15.08829413 58851,6917.913,95.438,540.936,538.619,0.0
52134.0,STARLINK-3721,PAYLOAD,2023-04-01 12:23:07,15.08818544,0.0001581,53.2143,206.7853,66.3528,293.763,-0.00022442,-3.856e-05,0.0,0 STARLINK-3721,1 52134U 22029AY  23091.51605640 -.00003856  00000-0 -22442-3 0  9993,2 52134  53.2143 206.7853 0001581  66.3528 293.7630 15.08818544 58929,6917.946,95.439,540.905,538.717,0.0
52134.0,STARLINK-3721,PAYLOAD,2023-04-01 13:58:30,15.08818052,0.000133,53.2154,206.4881,68.4685,291.6449,-0.00026452,-4.493e-05,0.0,0 STARLINK-3721,1 52134U 22029AY  23091.58229668 -.00004493  00000-0 -26452-3 0  9995,2 52134  53.2154 206.4881 0001330  68.4685 291.6449 15.08818052 58938,6917.947,95.439,540.733,538.892,0.0
52134.0,STARLINK-3721,PAYLOAD,2023-04-02 01:06:12,15.0883158,0.0001321,53.2154,204.4066,63.378,296.7347,9.6399e-05,1.246e-05,0.0,0 STARLINK-3721,1 52134U 22029AY  23092.04597613  .00001246  00000-0  96399-4 0  9994,2 52134  53.2154 204.4066 0001321  63.3780 296.7347 15.08831580 59004,6917.906,95.438,540.685,538.857,0.0
52134.0,STARLINK-3721,PAYLOAD,2023-04-02 12:13:54,15.08844681,0.0001494,53.215,202.3267,46.4557,313.6559,0.00037058,5.615e-05,0.0,0 STARLINK-3721,1 52134U 22029AY  23092.50965368  .00005615  00000-0  37058-3 0  9991,2 52134  53.2150 202.3267 0001494  46.4557 313.6559 15.08844681 59072,6917.866,95.437,540.765,538.698,0.0
52134.0,STARLINK-3721,PAYLOAD,2023-04-02 13:49:16,15.08852005,0.0001363,53.2151,202.0267,70.7526,289.3613,0.00047451,7.274e-05,0.0,0 STARLINK-3721,1 52134U 22029AY  23092.57589045  .00007274  00000-0  47451-3 0  9993,2 52134  53.2151 202.0267 0001363  70.7526 289.3613 15.08852005 59081,6917.844,95.437,540.652,538.766,0.0
52134.0,STARLINK-3721,PAYLOAD,2023-04-03 12:04:41,15.08840411,0.000135,53.2149,197.8641,64.7261,295.3871,0.00026728,3.968e-05,0.0,0 STARLINK-3721,1 52134U 22029AY  23093.50325680  .00003968  00000-0  26728-3 0  9990,2 52134  53.2149 197.8641 0001350  64.7261 295.3871 15.08840411 59227,6917.879,95.438,540.678,538.81,0.0
52134.0,STARLINK-3721,PAYLOAD,2023-04-04 11:55:27,15.088526,0.0001217,53.2155,193.4036,72.4743,287.6382,0.00019325,2.79e-05,0.0,0 STARLINK-3721,1 52134U 22029AY  23094.49684685  .00002790  00000-0  19325-3 0  9999,2 52134  53.2155 193.4036 0001217  72.4743 287.6382 15.08852600 59377,6917.842,95.437,540.549,538.865,0.0
52134.0,STARLINK-3721,PAYLOAD,2023-04-05 13:21:38,15.08836783,0.000133,53.2164,188.6482,98.3535,261.7608,-2.4588e-05,-6.79e-06,0.0,0 STARLINK-3721,1 52134U 22029AY  23095.55669217 -.00000679  00000-0 -24588-4 0  9995,2 52134  53.2164 188.6482 0001330  98.3535 261.7608 15.08836783 59536,6917.89,95.438,540.675,538.835,0.0
52134.0,STARLINK-3721,PAYLOAD,2023-04-06 11:37:02,15.08842724,0.0001017,53.2157,184.4833,87.0999,273.011,8.1834e-06,-1.58e-06,0.0,0 STARLINK-3721,1 52134U 22029AY  23096.48405162 -.00000158  00000-0  81834-5 0  9994,2 52134  53.2157 184.4833 0001017  87.0999 273.0110 15.08842724 59674,6917.872,95.437,540.441,539.034,0.0
52134.0,STARLINK-3721,PAYLOAD,2023-04-07 05:06:16,15.08842264,0.0001459,53.2163,181.2143,87.1218,272.9941,0.0001828,2.623e-05,0.0,0 STARLINK-3721,1 52134U 22029AY  23097.21269352  .00002623  00000-0  18280-3 0  9996,2 52134  53.2163 181.2143 0001459  87.1218 272.9941 15.08842264 59786,6917.873,95.437,540.748,538.729,0.0
52134.0,STARLINK-3721,PAYLOAD,2023-04-07 11:27:49,15.08837932,0.0001464,53.216,180.0233,84.2011,275.9148,8.8819e-05,1.126e-05,0.0,0 STARLINK-3721,1 52134U 22029AY  23097.47765605  .00001126  00000-0  88819-4 0  9999,2 52134  53.2160 180.0233 0001464  84.2011 275.9148 15.08837932 59828,6917.887,95.438,540.764,538.739,0.0
